PCSAT (NO-44)           
1 26931U 01043C   26073.58737432  .00000170  00000+0  94420-4 0  9996
2 26931  67.0498 128.9462 0006995 265.0362  94.9941 14.31914913276908
PROBA-1                 
1 26958U 01049B   26073.93626367  .00004202  00000+0  27441-3 0  9992
2 26958  97.9641  79.1930 0057222  81.7849 278.9862 15.07066807329424
SPOT 5                  
1 27421U 02021A   26073.86990374  .00000449  00000+0  10448-3 0  9991
2 27421  97.9977 116.8651 0129150 209.3015 150.0897 14.54666612249132
FENGYUN 1D              
1 27431U 02024B   26073.71336795  .00000117  00000+0  91365-4 0  9990
2 27431  98.9648 124.4242 0016047 145.8665 214.3540 14.10210626226164
SAUDISAT 1C (SO-50)     
1 27607U 02058C   26073.27104551  .00002083  00000+0  26271-3 0  9993
2 27607  64.5526  62.6028 0075307 279.8659  79.3951 14.82804742250386
CORIOLIS                
1 27640U 03001A   26073.91417413  .00000178  00000+0  10403-3 0  9997
2 27640  98.7160  82.2282 0014962 122.2955 237.9673 14.19915036200844
CUTE-1 (CO-55)          
1 27844U 03031E   26073.90291045  .00000398  00000+0  19111-3 0  9995
2 27844  98.6776  83.6370 0010761  99.0298 261.2099 14.24271034178259
CUBESAT XI-IV (CO-57)   
1 27848U 03031J   26073.56320221  .00000349  00000+0  17224-3 0  9999
2 27848  98.6807  83.0901 0010521 116.0304 244.1959 14.23565240177915
MOZHAETS 4 (RS22)       
1 27939U 03042A   26073.96702708  .00002004  00000+0  31810-3 0  9997
2 27939  98.3445 255.6750 0010752 202.2227 306.9819 14.73272902201676
IRS-P6 (RESOURCESAT-1)  
1 28051U 03046A   26073.97398534  .00000126  00000+0  56357-4 0  9993
2 28051  98.2042 115.0512 0062887 264.9432 214.0240 14.36120254167004
SAUDISAT 2              
1 28371U 04025F   26073.92267326  .00000388  00000+0  97857-4 0  9995
2 28371  98.5500  71.4789 0023864 224.3992 135.5292 14.56621404152020
COSMOS 2407             
1 28380U 04028A   26073.94456844  .00000071  00000+0  56609-4 0  9994
2 28380  82.9624 144.6362 0039978 154.2312  18.3589 13.76325709 86915
COSMOS 2414             
1 28521U 05002A   26073.59245366  .00000111  00000+0  80032-4 0  9992
2 28521  82.9471 115.2090 0038878 237.9612 121.7773 13.87916424 70698
INMARSAT 4-F1           
1 28628U 05009A   26073.74638325  .00000036  00000+0  00000+0 0  9993
2 28628   5.0400  42.7147 0002882 340.9877 235.4779  1.00272562 76724
HAMSAT (VO-52)          
1 28650U 05017B   26073.78164199  .00007504  00000+0  47885-3 0  9997
2 28650  97.9999  92.8735 0019526   1.9098 358.2200 15.08843509132525
NOAA 18                 
1 28654U 05018A   26073.92072843  .00000037  00000+0  42930-4 0  9993
2 28654  98.8149 154.9546 0015155  61.5917 298.6781 14.13711830 72993
SJ-7                    
1 28737U 05024A   26073.80530023  .00011320  00000+0  52566-3 0  9990
2 28737  97.7403 101.4239 0016173   6.3997 353.7441 15.20073827133684
