[{"OBJECT_NAME":"PCSAT (NO-44)","OBJECT_ID":"2001-043C","EPOCH":"2026-03-14T14:05:49.141248","MEAN_MOTION":14.31914913,"ECCENTRICITY":0.00069951,"INCLINATION":67.0498,"RA_OF_ASC_NODE":128.9462,"ARG_OF_PERICENTER":265.0362,"MEAN_ANOMALY":94.9941,"EPHEMERIS_TYPE":0,"CLASSIFICATION_TYPE":"U","NORAD_CAT_ID":26931,"ELEMENT_SET_NO":999,"REV_AT_EPOCH":27690,"BSTAR":9.4420142e-5,"MEAN_MOTION_DOT":1.7e-6,"MEAN_MOTION_DDOT":0},{"OBJECT_NAME":"PROBA-1","OBJECT_ID":"2001-049B","EPOCH":"2026-03-14T22:28:13.181088","MEAN_MOTION":15.07066807,"ECCENTRICITY":0.00572225,"INCLINATION":97.9641,"RA_OF_ASC_NODE":79.193,"ARG_OF_PERICENTER":81.7849,"MEAN_ANOMALY":278.9862,"EPHEMERIS_TYPE":0,"CLASSIFICATION_TYPE":"U","NORAD_CAT_ID":26958,"ELEMENT_SET_NO":999,"REV_AT_EPOCH":32942,"BSTAR":0.00027441371,"MEAN_MOTION_DOT":4.202e-5,"MEAN_MOTION_DDOT":0},{"OBJECT_NAME":"SPOT 5","OBJECT_ID":"2002-021A","EPOCH":"2026-03-14T20:52:39.683136","MEAN_MOTION":14.54666612,"ECCENTRICITY":0.01291504,"INCLINATION":97.9977,"RA_OF_ASC_NODE":116.8651,"ARG_OF_PERICENTER":209.3015,"MEAN_ANOMALY":150.0897,"EPHEMERIS_TYPE":0,"CLASSIFICATION_TYPE":"U","NORAD_CAT_ID":27421,"ELEMENT_SET_NO":999,"REV_AT_EPOCH":24913,"BSTAR":0.00010447806,"MEAN_MOTION_DOT":4.49e-6,"MEAN_MOTION_DDOT":0},{"OBJECT_NAME":"FENGYUN 1D","OBJECT_ID":"2002-024B","EPOCH":"2026-03-14T17:07:14.990880","MEAN_MOTION":14.10210626,"ECCENTRICITY":0.00160471,"INCLINATION":98.9648,"RA_OF_ASC_NODE":124.4242,"ARG_OF_PERICENTER":145.8665,"MEAN_ANOMALY":214.354,"EPHEMERIS_TYPE":0,"CLASSIFICATION_TYPE":"U","NORAD_CAT_ID":27431,"ELEMENT_SET_NO":999,"REV_AT_EPOCH":22616,"BSTAR":9.1364926e-5,"MEAN_MOTION_DOT":1.17e-6,"MEAN_MOTION_DDOT":0},{"OBJECT_NAME":"SAUDISAT 1C (SO-50)","OBJECT_ID":"2002-058C","EPOCH":"2026-03-14T06:30:18.332064","MEAN_MOTION":14.82804742,"ECCENTRICITY":0.00753077,"INCLINATION":64.5526,"RA_OF_ASC_NODE":62.6028,"ARG_OF_PERICENTER":279.8659,"MEAN_ANOMALY":79.3951,"EPHEMERIS_TYPE":0,"CLASSIFICATION_TYPE":"U","NORAD_CAT_ID":27607,"ELEMENT_SET_NO":999,"REV_AT_EPOCH":25038,"BSTAR":0.00026270512,"MEAN_MOTION_DOT":2.083e-5,"MEAN_MOTION_DDOT":0},{"OBJECT_NAME":"CORIOLIS","OBJECT_ID":"2003-001A","EPOCH":"2026-03-14T21:56:24.644832","MEAN_MOTION":14.19915036,"ECCENTRICITY":0.00149627,"INCLINATION":98.716,"RA_OF_ASC_NODE":82.2282,"ARG_OF_PERICENTER":122.2955,"MEAN_ANOMALY":237.9673,"EPHEMERIS_TYPE":0,"CLASSIFICATION_TYPE":"U","NORAD_CAT_ID":27640,"ELEMENT_SET_NO":999,"REV_AT_EPOCH":20084,"BSTAR":0.00010402551,"MEAN_MOTION_DOT":1.78e-6,"MEAN_MOTION_DDOT":0},{"OBJECT_NAME":"CUTE-1 (CO-55)","OBJECT_ID":"2003-031E","EPOCH":"2026-03-14T21:40:11.462880","MEAN_MOTION":14.24271034,"ECCENTRICITY":0.00107611,"INCLINATION":98.6776,"RA_OF_ASC_NODE":83.637,"ARG_OF_PERICENTER":99.0298,"MEAN_ANOMALY":261.2099,"EPHEMERIS_TYPE":0,"CLASSIFICATION_TYPE":"U","NORAD_CAT_ID":27844,"ELEMENT_SET_NO":999,"REV_AT_EPOCH":17825,"BSTAR":0.00019111018,"MEAN_MOTION_DOT":3.98e-6,"MEAN_MOTION_DDOT":0},{"OBJECT_NAME":"CUBESAT XI-IV (CO-57)","OBJECT_ID":"2003-031J","EPOCH":"2026-03-14T13:31:00.670944","MEAN_MOTION":14.2356524,"ECCENTRICITY":0.00105214,"INCLINATION":98.6807,"RA_OF_ASC_NODE":83.0901,"ARG_OF_PERICENTER":116.0304,"MEAN_ANOMALY":244.1959,"EPHEMERIS_TYPE":0,"CLASSIFICATION_TYPE":"U","NORAD_CAT_ID":27848,"ELEMENT_SET_NO":999,"REV_AT_EPOCH":17791,"BSTAR":0.00017224166,"MEAN_MOTION_DOT":3.49e-6,"MEAN_MOTION_DDOT":0},{"OBJECT_NAME":"MOZHAETS 4 (RS22)","OBJECT_ID":"2003-042A","EPOCH":"2026-03-14T23:12:31.139712","MEAN_MOTION":14.73272902,"ECCENTRICITY":0.00107524,"INCLINATION":98.3445,"RA_OF_ASC_NODE":255.675,"ARG_OF_PERICENTER":202.2227,"MEAN_ANOMALY":306.9819,"EPHEMERIS_TYPE":0,"CLASSIFICATION_TYPE":"U","NORAD_CAT_ID":27939,"ELEMENT_SET_NO":999,"REV_AT_EPOCH":20167,"BSTAR":0.00031809545,"MEAN_MOTION_DOT":2.004e-5,"MEAN_MOTION_DDOT":0},{"OBJECT_NAME":"IRS-P6 (RESOURCESAT-1)","OBJECT_ID":"2003-046A","EPOCH":"2026-03-14T23:22:32.333376","MEAN_MOTION":14.36120254,"ECCENTRICITY":0.00628875,"INCLINATION":98.2042,"RA_OF_ASC_NODE":115.0512,"ARG_OF_PERICENTER":264.9432,"MEAN_ANOMALY":214.024,"EPHEMERIS_TYPE":0,"CLASSIFICATION_TYPE":"U","NORAD_CAT_ID":28051,"ELEMENT_SET_NO":999,"REV_AT_EPOCH":16700,"BSTAR":5.6357414e-5,"MEAN_MOTION_DOT":1.26e-6,"MEAN_MOTION_DDOT":0},{"OBJECT_NAME":"SAUDISAT 2","OBJECT_ID":"2004-025F","EPOCH":"2026-03-14T22:08:38.969664","MEAN_MOTION":14.56621404,"ECCENTRICITY":0.00238642,"INCLINATION":98.55,"RA_OF_ASC_NODE":71.4789,"ARG_OF_PERICENTER":224.3992,"MEAN_ANOMALY":135.5292,"EPHEMERIS_TYPE":0,"CLASSIFICATION_TYPE":"U","NORAD_CAT_ID":28371,"ELEMENT_SET_NO":999,"REV_AT_EPOCH":15202,"BSTAR":9.7856646e-5,"MEAN_MOTION_DOT":3.88e-6,"MEAN_MOTION_DDOT":0},{"OBJECT_NAME":"COSMOS 2407","OBJECT_ID":"2004-028A","EPOCH":"2026-03-14T22:40:10.713216","MEAN_MOTION":13.76325709,"ECCENTRICITY":0.00399782,"INCLINATION":82.9624,"RA_OF_ASC_NODE":144.6362,"ARG_OF_PERICENTER":154.2312,"MEAN_ANOMALY":18.3589,"EPHEMERIS_TYPE":0,"CLASSIFICATION_TYPE":"U","NORAD_CAT_ID":28380,"ELEMENT_SET_NO":999,"REV_AT_EPOCH":8691,"BSTAR":5.6608889e-5,"MEAN_MOTION_DOT":7.1e-7,"MEAN_MOTION_DDOT":0},{"OBJECT_NAME":"COSMOS 2414","OBJECT_ID":"2005-002A","EPOCH":"2026-03-14T14:13:07.996224","MEAN_MOTION":13.87916424,"ECCENTRICITY":0.00388784,"INCLINATION":82.9471,"RA_OF_ASC_NODE":115.209,"ARG_OF_PERICENTER":237.9612,"MEAN_ANOMALY":121.7773,"EPHEMERIS_TYPE":0,"CLASSIFICATION_TYPE":"U","NORAD_CAT_ID":28521,"ELEMENT_SET_NO":999,"REV_AT_EPOCH":7069,"BSTAR":8.0031811e-5,"MEAN_MOTION_DOT":1.11e-6,"MEAN_MOTION_DDOT":0},{"OBJECT_NAME":"INMARSAT 4-F1","OBJECT_ID":"2005-009A","EPOCH":"2026-03-14T17:54:47.512800","MEAN_MOTION":1.00272562,"ECCENTRICITY":0.00028821,"INCLINATION":5.04,"RA_OF_ASC_NODE":42.7147,"ARG_OF_PERICENTER":340.9877,"MEAN_ANOMALY":235.4779,"EPHEMERIS_TYPE":0,"CLASSIFICATION_TYPE":"U","NORAD_CAT_ID":28628,"ELEMENT_SET_NO":999,"REV_AT_EPOCH":7672,"BSTAR":0,"MEAN_MOTION_DOT":3.6e-7,"MEAN_MOTION_DDOT":0},{"OBJECT_NAME":"HAMSAT (VO-52)","OBJECT_ID":"2005-017B","EPOCH":"2026-03-14T18:45:33.867936","MEAN_MOTION":15.08843509,"ECCENTRICITY":0.00195268,"INCLINATION":97.9999,"RA_OF_ASC_NODE":92.8735,"ARG_OF_PERICENTER":1.9098,"MEAN_ANOMALY":358.22,"EPHEMERIS_TYPE":0,"CLASSIFICATION_TYPE":"U","NORAD_CAT_ID":28650,"ELEMENT_SET_NO":999,"REV_AT_EPOCH":13252,"BSTAR":0.00047885397,"MEAN_MOTION_DOT":7.504e-5,"MEAN_MOTION_DDOT":0},{"OBJECT_NAME":"NOAA 18","OBJECT_ID":"2005-018A","EPOCH":"2026-03-14T22:05:50.936352","MEAN_MOTION":14.1371183,"ECCENTRICITY":0.00151555,"INCLINATION":98.8149,"RA_OF_ASC_NODE":154.9546,"ARG_OF_PERICENTER":61.5917,"MEAN_ANOMALY":298.6781,"EPHEMERIS_TYPE":0,"CLASSIFICATION_TYPE":"U","NORAD_CAT_ID":28654,"ELEMENT_SET_NO":999,"REV_AT_EPOCH":7299,"BSTAR":4.2930272e-5,"MEAN_MOTION_DOT":3.7e-7,"MEAN_MOTION_DDOT":0},{"OBJECT_NAME":"SJ-7","OBJECT_ID":"2005-024A","EPOCH":"2026-03-14T19:19:37.939872","MEAN_MOTION":15.20073827,"ECCENTRICITY":0.0016173,"INCLINATION":97.7403,"RA_OF_ASC_NODE":101.4239,"ARG_OF_PERICENTER":6.3997,"MEAN_ANOMALY":353.7441,"EPHEMERIS_TYPE":0,"CLASSIFICATION_TYPE":"U","NORAD_CAT_ID":28737,"ELEMENT_SET_NO":999,"REV_AT_EPOCH":13368,"BSTAR":0.00052566453,"MEAN_MOTION_DOT":0.0001132,"MEAN_MOTION_DDOT":0}]
